MEXSAT 3                
1 39035U 12075B   24280.20902285 -.00000015  00000+0  00000+0 0  9994
2 39035   0.0116 145.0304 0001992  34.1507 156.6531  1.00272119 43274
TDRS 11                 
1 39070U 13004A   24279.78019917  .00000090  00000+0  00000+0 0  9990
2 39070   2.8099  15.4545 0003572  73.0925  32.9278  1.00268297 40488
AMAZONAS 3              
1 39078U 13006A   24279.74323757 -.00000272  00000+0  00000+0 0  9999
2 39078   0.0268 224.1480 0004989 335.1409  22.1768  1.00275229 38703
AZERSPACE 1             
1 39079U 13006B   24279.84077230  .00000144  00000+0  00000+0 0  9990
2 39079   0.0137 190.5176 0002008  29.5612 143.6147  1.00268072 42597
SBIRS GEO-2 (USA 241)   
1 39120U 13011A   24279.74784222 -.00000245  00000+0  00000+0 0  9991
2 39120   3.1922  48.7936 0001973 157.1767  40.1737  1.00271570 42321
EUTELSAT 117 WEST A     
1 39122U 13012A   24280.20218487 -.00000002  00000+0  00000+0 0  9993
2 39122   0.0475  61.5107 0002806 128.1475 141.7079  1.00271503 42261
ANIK G1                 
1 39127U 13014A   24279.63810368 -.00000064  00000+0  00000+0 0  9999
2 39127   0.0381  92.0626 0002482 128.2662 276.9097  1.00272284 42040
ZHONGXING-11            
1 39157U 13020A   24279.84554100 -.00000280  00000+0  00000+0 0  9991
2 39157   0.0207 121.4374 0002990 165.8176 130.0586  1.00271695 41685
EUTELSAT 7B             
1 39163U 13022A   24279.86368708  .00000059  00000+0  00000+0 0  9992
2 39163   0.0715  18.8760 0001118 311.3721   2.7197  1.00273613 41741
WGS F5 (USA 243)        
1 39168U 13024A   24278.88669262 -.00000275  00000+0  00000+0 0  9990
2 39168   0.0177 189.2142 0000535  24.8747  66.6592  1.00267048 41609
SES-6                   
1 39172U 13026A   24279.74732094 -.00000250  00000+0  00000+0 0  9990
2 39172   0.0427  34.3319 0001941 166.6533  42.4892  1.00270999 41512
IRNSS-1A                
1 39199U 13034A   24279.00743712  .00000100  00000+0  00000+0 0  9999
2 39199  34.3266  72.8398 0021477 180.3289 178.7159  1.00272313 41143
MUOS-2                  
1 39206U 13036A   24279.72012737  .00000077  00000+0  00000+0 0  9998
2 39206   3.8147  41.9234 0056500 178.3604 236.8657  1.00268353 40989
ALPHASAT                
1 39215U 13038A   24279.54584532  .00000145  00000+0  00000+0 0  9993
2 39215   2.9049   6.6024 0003722 199.6844  29.7849  1.00272118 37808
INSAT-3D                
1 39216U 13038B   24279.99424281 -.00000327  00000+0  00000+0 0  9990
2 39216   0.3160  91.5774 0001174 104.3232 306.7292  1.00273959 41093
WGS F6 (USA 244)        
1 39222U 13041A   24279.72855477  .00000100  00000+0  00000+0 0  9995
2 39222   0.0130 198.9383 0000178  70.9942 232.0567  1.00271047 39843
ES'HAIL 1               
1 39233U 13044A   24279.85813270  .00000154  00000+0  00000+0 0  9998
2 39233   0.0643  21.2152 0002051 175.8274 152.4127  1.00273987 40418
GSAT-7                  
1 39234U 13044B   24279.62707847 -.00000067  00000+0  00000+0 0  9990
2 39234   0.0780  92.4386 0008140 156.5612  65.5595  1.00272744 39047
AMOS-4                  
1 39237U 13045A   24279.85882674  .00000018  00000+0  00000+0 0  9996
2 39237   0.0287 131.6508 0001860 112.0601 145.4986  1.00270461 40746
AEHF-3 (USA 246)        
1 39256U 13050A   24279.21661398  .00000031  00000+0  00000+0 0  9996
2 39256   3.7493  72.1619 0086920 172.3072  83.8141  1.00348504 39457
ASTRA 2E                
1 39285U 13056A   24279.85257534  .00000161  00000+0  00000+0 0  9991
2 39285   0.0779 320.9842 0003038 236.2576 153.1973  1.00272891 40211
FM-6                    
1 39360U 13058A   24279.63058476 -.00000006  00000+0  00000+0 0  9996
2 39360   0.0240 253.4429 0000377 201.5659  30.6521  1.00272335 39858
RADUGA-1M 3             
1 39375U 13062A   24279.85222811  .00000167  00000+0  00000+0 0  9994
2 39375   4.3761  79.8786 0003909 294.5130 342.4217  1.00272042 39890
SES-8                   
1 39460U 13071A   24280.05952049 -.00000259  00000+0  00000+0 0  9999
2 39460   0.0227 253.7577 0001725 257.5204 340.3850  1.00271412 39666
INMARSAT 5-F1           
1 39476U 13073A   24278.22549550  .00000035  00000+0  00000+0 0  9994
2 39476   0.0209 148.3112 0000623  79.0863 289.8309  1.00272698 39361
TKSAT-1 (TUPAC KATARI)  
1 39481U 13075A   24279.80952728 -.00000184  00000+0  00000+0 0  9998
2 39481   0.0560  51.5171 0002319 137.5068  30.1926  1.00273219 39382
EXPRESS-AM5             
1 39487U 13077A   24279.82479767 -.00000269  00000+0  00000+0 0  9999
2 39487   0.0116 238.0616 0001263  50.8293 163.0702  1.00271899 40141
GSAT-14                 
1 39498U 14001A   24279.85535437 -.00000067  00000+0  00000+0 0  9995
2 39498   0.0272 128.4692 0005426 106.3714 162.1167  1.00272266 39177
THAICOM 6               
1 39500U 14002A   24279.86466265 -.00000111  00000+0  00000+0 0  9993
2 39500   0.0551 111.7854 0003394  63.8751 229.1704  1.00271965 39240
TDRS 12                 
1 39504U 14004A   24279.74723405 -.00000258  00000+0  00000+0 0  9990
2 39504   3.5725   6.0319 0005611 216.7777  19.9533  1.00279328 38063
ABS-2                   
1 39508U 14006A   24279.85535437 -.00000076  00000+0  00000+0 0  9992
2 39508   0.0465  76.7122 0003424 107.4127 213.7533  1.00272075 39068
ATHENA-FIDUS            
1 39509U 14006B   24279.84146656  .00000165  00000+0  00000+0 0  9991
2 39509   0.0163 214.9286 0001499 355.4130 145.3956  1.00272023 38869
TURKSAT 4A              
1 39522U 14007A   24280.12271660  .00000157  00000+0  00000+0 0  9995
2 39522   0.0260 247.2108 0004269 342.8801 231.3885  1.00273478 39006
EXPRESS-AT1             
1 39612U 14010A   24279.86438112  .00000089  00000+0  00000+0 0  9999
2 39612   0.0159 250.5950 0000522 207.9894 283.6333  1.00272046 38609
EXPRESS-AT2             
1 39613U 14010B   24279.82479767 -.00000271  00000+0  00000+0 0  9991
2 39613   0.0124 244.3290 0001320  46.2382 161.2113  1.00270456 38287
AMAZONAS 4A             
1 39616U 14011A   24280.14840876 -.00000242  00000+0  00000+0 0  9993
2 39616   0.0511 169.8257 0004178  35.0731 149.8716  1.00271189 38669
ASTRA 5B                
1 39617U 14011B   24279.61708723  .00000147  00000+0  00000+0 0  9991
2 39617   0.0768 306.7364 0003700 265.9723  47.7290  1.00273105 38450
IRNSS-1B                
1 39635U 14017A   24279.00743712  .00000105  00000+0  00000+0 0  9991
2 39635  28.7792 250.9668 0019858 188.0236 352.8973  1.00274917 38579
LUCH-5V                 
1 39727U 14023A   24279.86932090 -.00000257  00000+0  00000+0 0  9992
2 39727   3.5716  75.1780 0003751 156.0317 191.5480  1.00270431 38141
KAZSAT-3                
1 39728U 14023B   24279.85882674  .00000073  00000+0  00000+0 0  9999
2 39728   0.0148 130.5368 0000505 285.5714 326.6100  1.00261252 36233
EUTELSAT 3B             
1 39773U 14030A   24279.86924444  .00000031  00000+0  00000+0 0  9994
2 39773   0.0657   3.2189 0005058 187.1859 140.6672  1.00271379 37858
ASIASAT 8 (AMOS-7)      
1 40107U 14046A   24280.18365528 -.00000022  00000+0  00000+0 0  9994
2 40107   0.0472  57.2451 0002100 136.3494 243.9839  1.00271844 37290
ASIASAT 6               
1 40141U 14052A   24279.80256852 -.00000352  00000+0  00000+0 0  9991
2 40141   0.0441  88.4797 0000952  80.4731 254.8658  1.00272757 36854
OPTUS 10                
1 40146U 14054A   24279.65850148 -.00000136  00000+0  00000+0 0  9999
2 40146   0.0693  51.0499 0003991 102.1579 254.6965  1.00272274 36810
MEASAT-3B               
1 40147U 14054B   24280.07063244 -.00000231  00000+0  00000+0 0  9997
2 40147   0.0580  54.5890 0000577  88.5853 348.9951  1.00270617 36965
LUCH (OLYMP-K 1)        
1 40258U 14058A   24279.75183870 -.00000130  00000+0  00000+0 0  9993
2 40258   0.2845  89.2806 0001834 195.2830 342.9373  1.00271949 34783
HIMAWARI-8              
1 40267U 14060A   24279.82479767 -.00000264  00000+0  00000+0 0  9995
2 40267   0.0193 187.8928 0000517  24.5444 240.1338  1.00275207 36546
IRNSS-1C                
1 40269U 14061A   24279.83821024 -.00000148  00000+0  00000+0 0  9997
2 40269   4.9395 102.0865 0020038   7.1648 290.3986  1.00275540 36475
INTELSAT 30 (IS-30)     
1 40271U 14062A   24273.76098768 -.00000168  00000+0  00000+0 0  9990
2 40271   0.3157  64.4631 0002160 218.1291 265.1626  1.00335076    13
ARSAT 1                 
1 40272U 14062B   24279.52664476 -.00000249  00000+0  00000+0 0  9996
2 40272   0.0254 305.3805 0001869 248.3642 298.7451  1.00271933 36400
EXPRESS-AM6             
1 40277U 14064A   24279.69441078  .00000109  00000+0  00000+0 0  9996
2 40277   0.0182 198.3675 0001139 306.5340 172.9227  1.00271211 36450
GSAT-16                 
1 40332U 14078A   24279.86438112  .00000095  00000+0  00000+0 0  9991
2 40332   0.0359 108.1308 0005429   4.6890 268.4617  1.00272406 35890
DIRECTV 14              
1 40333U 14078B   24279.59267385 -.00000115  00000+0  00000+0 0  9998
2 40333   0.0294 280.2203 0000477 174.0217  34.6568  1.00270229 35853
YAMAL 401               
1 40345U 14082A   24279.86761390 -.00000218  00000+0  00000+0 0  9995
2 40345   0.0094 210.6150 0000444  60.4856 146.2393  1.00269888 35702
ASTRA 2G                
1 40364U 14089A   24279.61804292  .00000160  00000+0  00000+0 0  9990
2 40364   0.0636  36.5906 0001836  56.2758 172.6060  1.00273911 35750
FENGYUN 2G              
1 40367U 14090A   24279.86372535 -.00000288  00000+0  00000+0 0  9994
2 40367   4.0689  80.2017 0002795 165.6429 179.6472  1.00266247 35780
MUOS-3                  
1 40374U 15002A   24279.87480160 -.00000117  00000+0  00000+0 0  9992
2 40374   3.4104  37.2467 0061842 178.7883  98.3920  1.00270333 35372
INMARSAT 5-F2           
1 40384U 15005A   24279.74436700 -.00000274  00000+0  00000+0 0  9997
2 40384   0.0136 177.9118 0000495 325.1412  84.7892  1.00270637 34787
ABS-3A                  
1 40424U 15010A   24280.18382903 -.00000015  00000+0  00000+0 0  9996
2 40424   0.0037 182.1991 0001744 330.6489 285.6956  1.00273491 35169
